[{"OBJECT_NAME":"STARLINK-4084","OBJECT_ID":"2022-053B","EPOCH":"2026-03-09T11:08:16.038528","MEAN_MOTION":15.08819125,"ECCENTRICITY":0.00012351,"INCLINATION":53.217,"RA_OF_ASC_NODE":155.4561,"ARG_OF_PERICENTER":85.5909,"MEAN_ANOMALY":274.5225,"EPHEMERIS_TYPE":0,"CLASSIFICATION_TYPE":"U","NORAD_CAT_ID":52657,"ELEMENT_SET_NO":999,"REV_AT_EPOCH":21137,"BSTAR":8.7318066e-5,"MEAN_MOTION_DOT":1.101e-5,"MEAN_MOTION_DDOT":0},{"OBJECT_NAME":"PEGASUS DEB","OBJECT_ID":"1994-029AET","EPOCH":"2026-03-08T20:58:13.181952","MEAN_MOTION":14.33766801,"ECCENTRICITY":0.03416791,"INCLINATION":81.9646,"RA_OF_ASC_NODE":115.4043,"ARG_OF_PERICENTER":327.5056,"MEAN_ANOMALY":30.5491,"EPHEMERIS_TYPE":0,"CLASSIFICATION_TYPE":"U","NORAD_CAT_ID":39308,"ELEMENT_SET_NO":999,"REV_AT_EPOCH":66634,"BSTAR":0.0017314365,"MEAN_MOTION_DOT":9.329e-5,"MEAN_MOTION_DDOT":0}]
